GLOBALSTAR M067 [+]     
1 32263U 07048A   23343.85707630 -.00000067  00000+0  22610-3 0  9993
2 32263  51.9710 220.8218 0000329 108.3162  17.4011 12.40635163740555
GLOBALSTAR M070 [+]     
1 32264U 07048B   23343.53516225 -.00000099  00000+0  27334-4 0  9991
2 32264  51.9771  21.1917 0000129  16.2729 130.6783 12.62282682743493
GLOBALSTAR M066 [+]     
1 32265U 07048C   23343.70218503 -.00000074  00000+0  16737-3 0  9996
2 32265  51.9672 242.7236 0001671  73.9405 303.8175 12.62277760745787
GLOBALSTAR M068 [-]     
1 32266U 07048D   23343.76515122 -.00000020  00000+0  46504-3 0  9996
2 32266  51.9863 195.2950 0001478  48.5512  74.3404 12.62774524747380
GLOBALSTAR M079 [+]     
1 37188U 10054A   23344.10148528 -.00000095  00000+0  47873-4 0  9999
2 37188  52.0059  29.5558 0000531 131.7881 309.6030 12.62270453607031
GLOBALSTAR M074 [+]     
1 37189U 10054B   23343.33569125 -.00000096  00000+0  46023-4 0  9991
2 37189  52.0038  31.2950 0000352 115.1245 325.1574 12.62263102606865
GLOBALSTAR M076 [+]     
1 37190U 10054C   23343.53555988 -.00000088  00000+0  88313-4 0  9996
2 37190  52.0051  30.8092 0000683 180.3195 327.1196 12.62264281606602
GLOBALSTAR M077 [+]     
1 37191U 10054D   23343.44705370 -.00000093  00000+0  59176-4 0  9990
2 37191  52.0093 347.7758 0000225  56.0364 108.5123 12.62267208606969
